{"type":"FeatureCollection","features":[{"type":"Feature","geometry":{"type":"Polygon","coordinates":[[[-3.6591438196705743,48.659209780669244],[-3.636485708364634,48.67068553367222],[-3.5812485466634136,48.67001788504223],[-3.5848109666117063,48.71714328760577],[-3.5553712374292132,48.727513465979534],[-3.550313063112974,48.748161651547555],[-3.583914958484379,48.770957492800314],[-3.57794290588313,48.788317654113186],[-3.535033949747009,48.80271604156535],[-3.5408959300937988,48.823160071945985],[-3.5231064424378755,48.82984632644791],[-3.467838623077333,48.823298521249114],[-3.4301953417140556,48.79725199605727],[-3.3975446062757473,48.80074944363836],[-3.382428393678025,48.81593302680193],[-3.3570114279950727,48.81969907013649],[-3.323351109794353,48.8372857508137],[-3.2620728843625333,48.83540082059945],[-3.2457616227016315,48.85707703727301],[-3.2197192609615692,48.86646505727847],[-3.2028204869337964,48.83450712281955],[-3.1679438416382495,48.85314717376183],[-3.1247589566102234,48.864723936263395],[-3.094421852953979,48.86764668461141],[-3.0834891305254475,48.827262011215225],[-3.0537161489037152,48.8152457771198],[-3.013633951697306,48.82213396052265],[-3.006141529447617,48.8002958368664],[-3.0454089632329833,48.78782195169868],[-3.0109390309556923,48.76663541659801],[-2.950301280923285,48.76363410458018],[-2.9289747965586783,48.753783159339335],[-2.9451008416298974,48.72080660138098],[-2.925263771726924,48.707706235287056],[-2.8902558845725252,48.69783483539522],[-2.8807700984538154,48.67423957383046],[-2.8565017877713177,48.67400220577111],[-2.82693502135218,48.65056933154873],[-2.815798289739638,48.60972420668523],[-2.819598830141578,48.59352827457419],[-2.7797389357262325,48.5851014526199],[-2.772680617047176,48.57054449754173],[-2.7202164699056217,48.55545942233219],[-2.720977837428319,48.53284752618768],[-2.698438421518125,48.50568354123005],[-2.6756732508454437,48.510662191084755],[-2.681558937117988,48.53113342751236],[-2.6302852526774863,48.52609134516814],[-2.6312676669697814,48.53812967265482],[-2.60556004275335,48.55182776019479],[-2.559733538085472,48.58639210176802],[-2.4952155554349047,48.608924120470554],[-2.4728755698685654,48.62308300588095],[-2.468004297270983,48.64958127336475],[-2.4356309681917874,48.65218264157844],[-2.4121662285976435,48.64149535614902],[-2.3609466388725773,48.65556175834698],[-2.3145391685823196,48.67409586438523],[-2.294173242748991,48.659975373377236],[-2.3134177483953855,48.63324397584119],[-2.3374720527788573,48.61972552862038],[-2.311900696016676,48.61149441654407],[-2.299891144928281,48.624056828499725],[-2.263502079970802,48.64364865321494],[-2.205399315491741,48.57889213970631],[-2.1755905479570017,48.576407987143455],[-2.1572330600099674,48.58835712746883],[-2.165799240930372,48.60423827586908],[-2.1237080247752895,48.6044100285603],[-2.1233140883470694,48.58901274793282],[-2.0924894843076234,48.572462492473],[-2.044804968300762,48.56420276394202],[-2.0462129661682633,48.54401486364402],[-2.006894935706843,48.56611290198358],[-1.972343842323779,48.534637865266006],[-1.9480369010443914,48.53880790488251],[-1.9251126755890333,48.54530394613221],[-1.9110132247187712,48.51741534739239],[-1.9268720731463556,48.47686450947533],[-1.923895933613775,48.460907740617046],[-1.9486347678108729,48.446456041738884],[-1.9519092329646253,48.42918354147581],[-1.9367895889503266,48.420070240063225],[-1.9384653904593245,48.391389339464936],[-1.947720243456438,48.36894464609711],[-1.9290791323813683,48.34704210576775],[-1.9668973217216907,48.3428189820063],[-1.9548327221541828,48.317109845291775],[-1.998266241844134,48.296980554393514],[-2.014100529199395,48.27953190980406],[-2.0532925486538485,48.29832786130155],[-2.0762583662242795,48.28371148397488],[-2.110118931164646,48.2529034820783],[-2.126853803195948,48.25976994927449],[-2.162901712976404,48.25626974900393],[-2.1869612472272957,48.24637857003084],[-2.1843775145100226,48.213137604790425],[-2.219796763889133,48.20213436033515],[-2.2247373292770836,48.17059701877417],[-2.248230377893739,48.15279776234215],[-2.2832479885362944,48.14529870453187],[-2.287278430400511,48.133745563458476],[-2.307724031505891,48.136767145944454],[-2.321067331808052,48.123313308346624],[-2.371983930719517,48.12276022571531],[-2.375704866327887,48.141440597184854],[-2.399892263143436,48.154593831126384],[-2.4070872062503708,48.167846923022466],[-2.4492428069717214,48.17301268121088],[-2.457460857137994,48.163558679343076],[-2.488996903351025,48.15527484508064],[-2.5336627078715,48.156856696914886],[-2.516390296656647,48.12795387925489],[-2.5493015028073205,48.09906568300373],[-2.5484346321898643,48.07671678652329],[-2.5808040837522404,48.06711154950066],[-2.628212989216798,48.03379948794944],[-2.6708865594355458,48.0502796096436],[-2.6733315926174024,48.06327971694363],[-2.6561723624005746,48.08428809143894],[-2.6531526316222527,48.118092931008704],[-2.6683740921478765,48.1327428357553],[-2.702496597157526,48.11801355272737],[-2.7579911570321793,48.11080992160437],[-2.781951132488677,48.12057973083874],[-2.809828548228586,48.146257335704156],[-2.850803362250115,48.14117007726401],[-2.902695082695001,48.162745095709155],[-2.939688841727517,48.17157869268649],[-2.987721150165838,48.15963608311985],[-3.011766723688266,48.172146259772674],[-3.0139527993300925,48.18705096969819],[-3.0406075793447904,48.20331232171781],[-3.1303749671924512,48.19836233856125],[-3.13949669814907,48.16369070727257],[-3.1552540693335707,48.15849094352833],[-3.197060119674698,48.16274313777778],[-3.2153961448986896,48.148219713915],[-3.252339548077637,48.14912522090896],[-3.272244339627829,48.14001476484374],[-3.299596147833247,48.15481185209133],[-3.3161758750965893,48.1545827022414],[-3.344702681056185,48.16988498065198],[-3.375090054291556,48.16304435591315],[-3.412343177084257,48.14703755651635],[-3.4365241396101114,48.15548652160798],[-3.421483221253355,48.171908070532616],[-3.479531508235686,48.18604551951424],[-3.5226593775760193,48.17866367131642],[-3.564838973733329,48.18574694305737],[-3.538217936786089,48.20645883664802],[-3.5577832202588646,48.22853101061742],[-3.553237531594755,48.241947687032244],[-3.5259985674913756,48.26077449475174],[-3.518062717927428,48.281842614354964],[-3.540871846305997,48.29905273798831],[-3.556786825742612,48.335519987867116],[-3.5545842830629764,48.37776678483146],[-3.605518820600736,48.38654294008208],[-3.6005386081976343,48.42162432587916],[-3.563244712868301,48.43986658912548],[-3.5813817787905893,48.46480510230907],[-3.5989459676290556,48.47050839949987],[-3.6045363791794003,48.49579010573053],[-3.5820087289476406,48.50685582272],[-3.55387113158307,48.53037692213068],[-3.5699848146891386,48.55609659253676],[-3.5933075055755452,48.55460449049691],[-3.5900947382947392,48.58273907967781],[-3.6411048139943123,48.596795685658186],[-3.6542763238260356,48.61697438924653],[-3.6591438196705743,48.659209780669244]]]},"properties":{"code":"22","nom":"C\u00f4tes-d'Armor"}},{"type":"Feature","geometry":{"type":"MultiPolygon","coordinates":[[[[-5.102603031250701,48.43611710405846],[-5.103600745641675,48.47233254581352],[-5.065760515653101,48.48139267104152],[-5.04035308104457,48.46511684576535],[-5.063102244199608,48.44905420596996],[-5.102603031250701,48.43611710405846]]],[[[-3.6591438196705743,48.659209780669244],[-3.6542763238260356,48.61697438924653],[-3.6411048139943123,48.596795685658186],[-3.5900947382947392,48.58273907967781],[-3.5933075055755452,48.55460449049691],[-3.5699848146891386,48.55609659253676],[-3.55387113158307,48.53037692213068],[-3.5820087289476406,48.50685582272],[-3.6045363791794003,48.49579010573053],[-3.5989459676290556,48.47050839949987],[-3.5813817787905893,48.46480510230907],[-3.563244712868301,48.43986658912548],[-3.6005386081976343,48.42162432587916],[-3.605518820600736,48.38654294008208],[-3.5545842830629764,48.37776678483146],[-3.556786825742612,48.335519987867116],[-3.540871846305997,48.29905273798831],[-3.518062717927428,48.281842614354964],[-3.5259985674913756,48.26077449475174],[-3.553237531594755,48.241947687032244],[-3.5577832202588646,48.22853101061742],[-3.538217936786089,48.20645883664802],[-3.564838973733329,48.18574694305737],[-3.6283881260752544,48.1687248221492],[-3.6518557265570566,48.156583426737576],[-3.69467505545132,48.15091429371495],[-3.7155113160954,48.14222278424499],[-3.717299501973206,48.12152104588753],[-3.73401071349441,48.11285300326305],[-3.725890623875097,48.09496610205945],[-3.7032714693453843,48.08734402006448],[-3.69816707482359,48.06231160032721],[-3.675286774640338,48.059296687637904],[-3.662606521516704,48.02008121333488],[-3.640231533075075,47.98524271311537],[-3.5813379803683882,47.98707045002737],[-3.5552758457516087,47.993098470462],[-3.5156118733539357,47.97536899639446],[-3.497303664400367,47.97663709189755],[-3.4813997640454386,47.95187230610157],[-3.4627039996577236,47.948470485246176],[-3.4128264844188565,47.9741964735994],[-3.3922406780637284,47.95650358632056],[-3.4015047820862296,47.94296944095624],[-3.3870295747062062,47.925240278144464],[-3.406618446285296,47.917155590887866],[-3.4040114963344528,47.86615562756545],[-3.449172314379866,47.861897916786695],[-3.4584776087007003,47.83672369691625],[-3.488375735328993,47.82369125414433],[-3.5117214211485104,47.83199375246112],[-3.523004293499609,47.84914685714251],[-3.5396513689234244,47.83617965304551],[-3.5425770850250635,47.82151227934617],[-3.5229226544939514,47.80223614015396],[-3.5386344188426375,47.76264176980493],[-3.5641121250447267,47.76861005548025],[-3.6173293885938573,47.76951026006133],[-3.666828405107558,47.78066980771674],[-3.6808401232958055,47.776789568451115],[-3.7359638663585395,47.80568353533829],[-3.7620343226442494,47.790565500089855],[-3.80058711359008,47.787633168752826],[-3.8206966045621122,47.79704005110039],[-3.8510582202094192,47.79595113220543],[-3.9014575009234087,47.83811402726429],[-3.9352297901853737,47.88271768897734],[-3.979285765673716,47.90506331053172],[-3.9892426691277407,47.88124042404969],[-3.9779071580540446,47.85370904171028],[-4.041402101062129,47.84560407995417],[-4.071579359966193,47.8639343495831],[-4.12605004973185,47.864172382493564],[-4.163559448578027,47.84918510804166],[-4.175106219653961,47.87596847062619],[-4.1971340520002265,47.86102385449842],[-4.179428919445678,47.83927438037873],[-4.15940114971976,47.8318173246385],[-4.183013010492385,47.800536704160066],[-4.2165887057710965,47.793144928603546],[-4.269232846114915,47.790984442793075],[-4.298541674244525,47.80045582335789],[-4.362405222202317,47.79574452412905],[-4.379252075100091,47.82205366025167],[-4.349806909070088,47.830787344673475],[-4.35026147711619,47.85720715426938],[-4.367485583327389,47.895018967431604],[-4.388015035003269,47.926654784945555],[-4.423497441952159,47.9629190746406],[-4.45357212479016,47.98178335103627],[-4.509946245392576,48.00508930612951],[-4.540544158513848,48.01277237320508],[-4.564748323475724,47.99983217909559],[-4.617153960280601,48.01668341623001],[-4.632961817787164,48.029371518298575],[-4.65236486621254,48.02197780046869],[-4.699486095336003,48.0276385517676],[-4.716343505589336,48.06246408637442],[-4.673766453815838,48.060832956449374],[-4.6659348329354255,48.07024114770002],[-4.621727492652852,48.068543619046565],[-4.5801348626137575,48.08191194086029],[-4.553615731275088,48.07713834742257],[-4.532513782688574,48.08825622911054],[-4.487667360513949,48.086548703734806],[-4.466691486895225,48.09914603365788],[-4.42937785197245,48.09921479885298],[-4.374400199477134,48.110160305908614],[-4.306988535338467,48.089182615717235],[-4.2855866218113725,48.104744565148835],[-4.2837220130952955,48.126900982468996],[-4.271721077823729,48.133056537289555],[-4.273083579380047,48.15418112435729],[-4.295843919274587,48.16142932399722],[-4.292060558661123,48.17634830008409],[-4.303105949344183,48.19481221480856],[-4.332028821902894,48.20625396161038],[-4.367421587366783,48.20518414807059],[-4.376408546426716,48.217120176811314],[-4.462948817851071,48.23822329999254],[-4.501654363959345,48.230424062827204],[-4.520558957420493,48.191481893648785],[-4.5541301011022846,48.167773715825284],[-4.55239723973961,48.20798329589854],[-4.564023813101924,48.232230611567076],[-4.544514592316071,48.241191573122464],[-4.556269907144756,48.25839883522839],[-4.583648389279179,48.25188609816883],[-4.606432460120089,48.260804316606915],[-4.566613794720501,48.286343567274294],[-4.5805180078903875,48.31953640425027],[-4.553173678040408,48.33877871593713],[-4.545322996139177,48.32453014489154],[-4.552688342449066,48.29433138900056],[-4.535044973995933,48.28408016653001],[-4.51791127193264,48.29532344340755],[-4.502598847108407,48.28086108393083],[-4.455054516900592,48.292768680960236],[-4.423778354693354,48.291677200748616],[-4.4121268947877414,48.27743520886878],[-4.384499553201252,48.27515572709832],[-4.338007897909741,48.28559363845158],[-4.308030328849242,48.29716811390846],[-4.271673566367982,48.29591729189257],[-4.261871578053853,48.27947084714217],[-4.223087545336637,48.296299071102354],[-4.281228861951339,48.314447470573086],[-4.328634688910267,48.31488418033181],[-4.316134692309666,48.335818592679146],[-4.367224196551887,48.34371171314183],[-4.375256083838373,48.32630324311795],[-4.442251665475733,48.32677107157494],[-4.443889468046649,48.34883595893029],[-4.402940735996712,48.390022498012094],[-4.424948261340765,48.397597431903],[-4.435282416373567,48.38339288656854],[-4.458114014938408,48.385867352822785],[-4.5070286895447,48.375178986581524],[-4.538022709122905,48.357127206507],[-4.54966862065911,48.362005158047474],[-4.608723907528041,48.33788748522352],[-4.628097678951578,48.33751415715651],[-4.678429988988318,48.35543131935038],[-4.69483398347226,48.35279072707112],[-4.707560306796703,48.33232585661272],[-4.7722963997844206,48.329183978768505],[-4.769925202904266,48.361796246678736],[-4.760909970272357,48.37274934621913],[-4.774449224429342,48.389388669092874],[-4.773685539184036,48.40492512169256],[-4.79490980371592,48.41306522400434],[-4.778308286782586,48.44933411185572],[-4.759049827922969,48.47040485137466],[-4.777001937365527,48.50311695180772],[-4.757988885564184,48.52093310825663],[-4.762396097201912,48.530913179201654],[-4.730582004767845,48.556349210517865],[-4.704749488588449,48.56897618289027],[-4.681095549020893,48.56731997011509],[-4.627815146836776,48.57891940354545],[-4.6098896150813555,48.575823083209116],[-4.590772268866488,48.59402847039412],[-4.562764141371104,48.59817521227606],[-4.557624352657544,48.623470387580625],[-4.519579706212667,48.63461429836846],[-4.501808596546954,48.621190515057386],[-4.431795383056437,48.635233047605645],[-4.417756994812844,48.65471295900724],[-4.398044453426728,48.65561657189681],[-4.35001885330614,48.67651959770488],[-4.3167824361752904,48.67199333723616],[-4.271733741368674,48.64950099695784],[-4.223767566780155,48.648361716153644],[-4.209602839214799,48.67044798555623],[-4.186935690423405,48.68646122790089],[-4.1089633691562515,48.69443456873133],[-4.057584711672935,48.689257976253764],[-4.0534274992711286,48.7032941013924],[-4.032990823785386,48.71270325427199],[-4.0005346564303155,48.71162801931488],[-3.9834396203178497,48.72630319219002],[-3.9668110875090608,48.7196296260678],[-3.973629366481163,48.70388914743309],[-3.9694817850407995,48.67541780327085],[-3.9494614719873633,48.65286849015005],[-3.9035069777805154,48.66440380162745],[-3.8895722831453385,48.64166403341278],[-3.845544973771357,48.62696293321332],[-3.8562366572284197,48.64905420905967],[-3.8458155271587935,48.66164492704556],[-3.8544747780529227,48.68637205322022],[-3.820777313163899,48.701354575208065],[-3.7874874253592217,48.70179551925303],[-3.765699137667055,48.70888608345991],[-3.7332511605024314,48.70742218765922],[-3.702432092334233,48.69038564489073],[-3.6591595380103863,48.69489143579908],[-3.642801218211254,48.672120238447434],[-3.6591438196705743,48.659209780669244]]]]},"properties":{"code":"29","nom":"Finist\u00e8re"}},{"type":"Feature","geometry":{"type":"MultiPolygon","coordinates":[[[[-2.1237080247752895,48.6044100285603],[-2.141418514151318,48.63150826238565],[-2.1110187885946092,48.639371270835035],[-2.0731195987308073,48.639848527788644],[-2.0550968709795594,48.62731181103318],[-2.030265589793804,48.623037585858],[-2.0335527005150444,48.60945056178775],[-2.0135087146521657,48.58752054847777],[-2.006894935706843,48.56611290198358],[-2.0462129661682633,48.54401486364402],[-2.044804968300762,48.56420276394202],[-2.0924894843076234,48.572462492473],[-2.1233140883470694,48.58901274793282],[-2.1237080247752895,48.6044100285603]]],[[[-1.9480369010443914,48.53880790488251],[-1.9611498133853817,48.55028465234394],[-1.9919510225165333,48.59410622069773],[-2.0087091801575645,48.60763335351246],[-2.025977992976761,48.634440306350065],[-2.0259623321650078,48.651529854005666],[-1.9952407599257496,48.66014163675909],[-1.9698282134951834,48.686323125327455],[-1.938080197743341,48.69445682698749],[-1.9058385211153706,48.69048099448555],[-1.8905012399508623,48.69894290465139],[-1.8485728474073226,48.69470909677442],[-1.8364331812622583,48.68121682888067],[-1.862720260590434,48.66727765633872],[-1.8716564802790996,48.64741056211108],[-1.8450734275301934,48.61636825056999],[-1.7739813304009915,48.60347255264488],[-1.6611080846074195,48.61074343781696],[-1.571087121326364,48.62644574305228],[-1.5395886706131567,48.59990995187043],[-1.5429924815935763,48.580444133540496],[-1.5189153941473403,48.56659421958314],[-1.5332845735947223,48.548008242217605],[-1.5195667662578034,48.54001612578908],[-1.4956341385339116,48.508901592854826],[-1.4899474351423645,48.4893748476061],[-1.4492619036481307,48.48610480553381],[-1.4291375679083818,48.46255700303843],[-1.3825547062366061,48.4568090552251],[-1.3446860862323986,48.47306856926301],[-1.3286586444430455,48.49624141596003],[-1.2792064911793741,48.50916990134831],[-1.2722484935647256,48.533924823055],[-1.206555726308375,48.54220594454138],[-1.1883677623098592,48.52868744833374],[-1.1709940931325373,48.53107346572728],[-1.1470794109416749,48.517497772579],[-1.1305430914657242,48.52170438546665],[-1.0701645143702043,48.50849381419032],[-1.0757201292558587,48.499394433638884],[-1.06581502082362,48.4511898364817],[-1.0830222073820854,48.43355484623164],[-1.0771281225801501,48.41169597169672],[-1.0539346752839132,48.383988802654805],[-1.0646345421184056,48.36828025341763],[-1.0450195299623026,48.327727830000974],[-1.0820973324543777,48.298390519589205],[-1.1015118599620337,48.26179752391566],[-1.0736642370047438,48.20075616092018],[-1.0796054903163383,48.18347699576321],[-1.0602909002161003,48.150112461248],[-1.04960608939875,48.08980493060165],[-1.023283345569893,48.06891120315209],[-1.0346655165784813,48.03361464779431],[-1.018202579829028,48.012309356573546],[-1.0212610284765602,47.99494016247969],[-1.0709701077191276,47.98180281363006],[-1.1026711686637318,47.98906278289821],[-1.1260769059410864,47.97331126695682],[-1.1539806565642339,47.96582146885006],[-1.1595139860083212,47.939220868111676],[-1.176229425978116,47.89739680946678],[-1.1966267612194066,47.88926967278471],[-1.1892286738461781,47.8675257247478],[-1.2139598200974668,47.84431487401968],[-1.2160077396105768,47.83115457607098],[-1.2382517343256678,47.80999146297073],[-1.2458823462890538,47.776717547680406],[-1.318489521021141,47.79233158240722],[-1.360603817710753,47.798432206803135],[-1.3904279688415837,47.828280801153184],[-1.4178432025307772,47.82748441208516],[-1.4651862054088018,47.83460451273148],[-1.475255403833222,47.82540410017005],[-1.4666150070573418,47.8074975400483],[-1.5042371318422498,47.8009448646891],[-1.5280651896409132,47.78584499709324],[-1.5934074072820492,47.77605009178189],[-1.6163557701095264,47.76415676086167],[-1.635569613301689,47.74266025266195],[-1.6381801885560439,47.72231564110314],[-1.6556020388557997,47.71053299603197],[-1.6911255411567772,47.71282712864092],[-1.7236704751667482,47.698676218818825],[-1.752032319383817,47.70741764750666],[-1.7724163023563184,47.69845339608558],[-1.8225344895568474,47.70628736859361],[-1.8640133393104241,47.7069846705491],[-1.9363047156903395,47.68664646647229],[-1.9546408028570217,47.67170187943092],[-1.9690539759076384,47.688369032568346],[-2.0093556937669623,47.67137826011831],[-2.0357262501792506,47.668539150280836],[-2.050619855103944,47.65113784113771],[-2.0747365598102796,47.65166099544987],[-2.097035597340287,47.63135984401428],[-2.1143465125517733,47.64948078140733],[-2.104362517130758,47.67679662818726],[-2.1226631940444274,47.68266972251208],[-2.1193410051181774,47.71063202277528],[-2.131472084919135,47.72224026215694],[-2.108708446187951,47.736577355949336],[-2.05870429699438,47.73825600134232],[-2.0847208937394774,47.76271449098266],[-2.1281864076334727,47.76137577244934],[-2.072263910083875,47.79043840708027],[-2.07046358794415,47.81140390317735],[-2.0495260703928677,47.816917397929046],[-2.035760594626103,47.83230046155979],[-2.0516011501156974,47.84056453938214],[-2.05159236139944,47.858773023325405],[-2.0912481690997526,47.8434473982296],[-2.0963111903663836,47.862554271425815],[-2.1162985684590643,47.88095628988424],[-2.104913226347623,47.90237571011746],[-2.0847410993122524,47.90544356892739],[-2.079088544973962,47.91952249839454],[-2.098673563613805,47.93553710123405],[-2.1112032705184025,47.959278246467555],[-2.143950368919052,47.983469165776214],[-2.174134646718617,47.97976235737829],[-2.2048365524509523,47.99406221955531],[-2.2328964298568574,47.998867256915695],[-2.282925404888046,47.99091881499263],[-2.2795950136703538,48.02636073132026],[-2.2418711140864542,48.05284164383506],[-2.193720023024239,48.05137966801874],[-2.1703797438923407,48.06358155989515],[-2.1873980178837424,48.08098581530162],[-2.2332446439270166,48.07562787634504],[-2.255362117704863,48.065686457906594],[-2.255541810894401,48.10943651832076],[-2.287278430400511,48.133745563458476],[-2.2832479885362944,48.14529870453187],[-2.248230377893739,48.15279776234215],[-2.2247373292770836,48.17059701877417],[-2.219796763889133,48.20213436033515],[-2.1843775145100226,48.213137604790425],[-2.1869612472272957,48.24637857003084],[-2.162901712976404,48.25626974900393],[-2.126853803195948,48.25976994927449],[-2.110118931164646,48.2529034820783],[-2.0762583662242795,48.28371148397488],[-2.0532925486538485,48.29832786130155],[-2.014100529199395,48.27953190980406],[-1.998266241844134,48.296980554393514],[-1.9548327221541828,48.317109845291775],[-1.9668973217216907,48.3428189820063],[-1.9290791323813683,48.34704210576775],[-1.947720243456438,48.36894464609711],[-1.9384653904593245,48.391389339464936],[-1.9367895889503266,48.420070240063225],[-1.9519092329646253,48.42918354147581],[-1.9486347678108729,48.446456041738884],[-1.923895933613775,48.460907740617046],[-1.9268720731463556,48.47686450947533],[-1.9110132247187712,48.51741534739239],[-1.9251126755890333,48.54530394613221],[-1.9480369010443914,48.53880790488251]]]]},"properties":{"code":"35","nom":"Ille-et-Vilaine"}},{"type":"Feature","geometry":{"type":"Polygon","coordinates":[[[-2.45848916517333,47.44812172071826],[-2.453433891770773,47.46207445240776],[-2.4230264761460525,47.477112579344045],[-2.3999436811786463,47.45598156061156],[-2.370968184053226,47.46338717496278],[-2.354869937092447,47.454890712840786],[-2.31286829291468,47.46446874947645],[-2.3131355987939677,47.48590211028132],[-2.2991284429653516,47.50047998605304],[-2.2613604986657707,47.51360628741794],[-2.244282758246302,47.49360064884759],[-2.1908096601747804,47.51205628181908],[-2.1832952625867295,47.49169698467854],[-2.1541846873077226,47.496364126798106],[-2.1560219978896007,47.52202803044017],[-2.0985539306805943,47.53395835736954],[-2.096505468974894,47.57236562280809],[-2.10372254987444,47.58943141752024],[-2.0869285812433267,47.60277534815358],[-2.084994306680996,47.62123305096733],[-2.097035597340287,47.63135984401428],[-2.0747365598102796,47.65166099544987],[-2.050619855103944,47.65113784113771],[-2.0357262501792506,47.668539150280836],[-2.0093556937669623,47.67137826011831],[-1.9690539759076384,47.688369032568346],[-1.9546408028570217,47.67170187943092],[-1.9363047156903395,47.68664646647229],[-1.8640133393104241,47.7069846705491],[-1.8225344895568474,47.70628736859361],[-1.7724163023563184,47.69845339608558],[-1.752032319383817,47.70741764750666],[-1.7236704751667482,47.698676218818825],[-1.6911255411567772,47.71282712864092],[-1.6556020388557997,47.71053299603197],[-1.6381801885560439,47.72231564110314],[-1.635569613301689,47.74266025266195],[-1.6163557701095264,47.76415676086167],[-1.5934074072820492,47.77605009178189],[-1.5280651896409132,47.78584499709324],[-1.5042371318422498,47.8009448646891],[-1.4666150070573418,47.8074975400483],[-1.475255403833222,47.82540410017005],[-1.4651862054088018,47.83460451273148],[-1.4178432025307772,47.82748441208516],[-1.3904279688415837,47.828280801153184],[-1.360603817710753,47.798432206803135],[-1.318489521021141,47.79233158240722],[-1.2458823462890538,47.776717547680406],[-1.2355437776358398,47.757046555422306],[-1.2545772523262662,47.733641751506994],[-1.2154187219671249,47.718817804901974],[-1.1951181057962028,47.72154902070605],[-1.1894960789668845,47.69916325132362],[-1.1749295691501485,47.694565013829596],[-1.1824294262619501,47.6680046714435],[-1.1608077767122782,47.65632049258235],[-1.1579089209094204,47.63660321755249],[-1.137956817334609,47.619736138890346],[-1.1006492140245874,47.62068366379477],[-1.0564895204285647,47.601479248609785],[-1.026009375226936,47.599308629561634],[-1.0068639898836467,47.58905339488284],[-1.0525094143946503,47.56363638662836],[-1.0397778230870207,47.54883710607215],[-1.0444575006084293,47.50550106908369],[-1.0086170505041334,47.489110660531026],[-0.9674825559179046,47.492800296900974],[-0.9672169416067916,47.468248780242014],[-0.9542208546281663,47.4539097574189],[-0.9610616341565943,47.418146960038484],[-0.9500724202369605,47.40418985727392],[-0.9508302510459343,47.38350557596203],[-0.9748672757080542,47.371382608948814],[-1.0178737847602033,47.36506226317233],[-1.0787286518898893,47.370791947022845],[-1.1082260597696614,47.36577684975045],[-1.167609698077546,47.365887235139574],[-1.182960128465649,47.35431013426607],[-1.2286336711215902,47.34992378396915],[-1.2612216058119492,47.34085259435289],[-1.2998771573086019,47.33762366530587],[-1.3358228427021601,47.3189666448679],[-1.3443707665147786,47.300912351608176],[-1.3017706698751919,47.30303238335918],[-1.2798655849130829,47.29443954491049],[-1.279481478733716,47.274997858626456],[-1.251834385400758,47.248391505350874],[-1.2283649350807286,47.239712044540795],[-1.1980384206236745,47.252940714686886],[-1.1809669432498426,47.24081046650355],[-1.1880521879881976,47.219792216059965],[-1.1784570598013726,47.193390310739396],[-1.1634008936162523,47.18546752937314],[-1.175868309084218,47.16311976069785],[-1.207726991440738,47.1438706405948],[-1.2374293726181724,47.13493300477958],[-1.2258419448390925,47.11944408223294],[-1.2423703743532273,47.10123014862037],[-1.170292292370527,47.093053598552416],[-1.145027574182689,47.06837675006014],[-1.1155386203739606,47.06269707451897],[-1.1170476687025708,47.04013159004134],[-1.1485704887534398,47.029545162586565],[-1.200679265181828,47.04002068735864],[-1.230646678052403,47.0647662671337],[-1.248272600668004,47.068248451977425],[-1.2683044893940385,47.08474885032919],[-1.2903251112226377,47.07019181205101],[-1.2946349782361042,47.03948346966515],[-1.3124114592110108,47.03350963450989],[-1.3627515861913184,47.04068820066417],[-1.3786124689367814,47.03085386698655],[-1.363022131692666,47.005231806651935],[-1.3775094300897999,46.990940454807415],[-1.3590587331965938,46.98113458794234],[-1.3729857700949506,46.95218446660972],[-1.4181594787532137,46.943057239909116],[-1.4582677297055284,46.92583846037384],[-1.4715165512848787,46.93291787054446],[-1.4572082927387657,46.95464665401728],[-1.4769594857010369,46.98097074445235],[-1.469172627780506,47.00198697021648],[-1.4759335714372155,47.029463554503664],[-1.4998449288829532,47.04068947453796],[-1.515724271893768,47.027732420842334],[-1.5552723334553664,47.01533738692226],[-1.542665987015755,47.00327217070728],[-1.5543623514658027,46.97816341773942],[-1.5309030377362816,46.94498074264914],[-1.527927453698693,46.92377826735825],[-1.5007668577856463,46.88389115282979],[-1.5485110748777025,46.86007983436468],[-1.634820511862539,46.87837868837905],[-1.6645131258008816,46.874779205029014],[-1.6870033984268769,46.89055113474326],[-1.7202546726947285,46.88456447923729],[-1.7371139932046213,46.89680599083098],[-1.7362508076850236,46.91143568904478],[-1.7513270577094098,46.929611815604666],[-1.77556460551789,46.92540682943319],[-1.8309821821134158,46.932033724154486],[-1.8318237164160205,46.953809822447525],[-1.872614380314098,46.95312868208426],[-1.9174428113267457,46.97508381963422],[-1.9166202315157645,46.991518959422415],[-1.9432276192598639,46.99471092059494],[-1.9688489284381314,47.02767329905578],[-1.980414486742876,47.02890649407564],[-2.0047172984420274,47.06145903008165],[-2.032603631969014,47.07351687202541],[-2.0534725301465024,47.09412159709027],[-2.114087677200522,47.10989368059357],[-2.1555864883203406,47.11283045616817],[-2.1776732744717013,47.1220648516062],[-2.214466888230872,47.123901610790035],[-2.226823218085358,47.13094036238744],[-2.226132030050598,47.15227424383228],[-2.167064477781809,47.16618049901811],[-2.1583713304619327,47.20905347867946],[-2.1805520828108604,47.23299057764472],[-2.1705404081241095,47.23975355445233],[-2.169993937357407,47.26847661211524],[-2.1873645299124624,47.28061948952369],[-2.245373274313404,47.25599310446833],[-2.2698943084243393,47.23956836515538],[-2.301643363345213,47.23640440229174],[-2.339599042924339,47.25518767687217],[-2.3697489457624465,47.27743476237253],[-2.398380900159916,47.28144600126307],[-2.441973190559724,47.26058258477878],[-2.4555196699772877,47.26813905362376],[-2.513904074004327,47.284623375273924],[-2.502914104344962,47.328751209072664],[-2.5211551419585674,47.35881029297989],[-2.5589409930083042,47.374567573551786],[-2.5341025675524826,47.38296506334218],[-2.483893499163002,47.412419341696214],[-2.4508581636576396,47.425325950967114],[-2.45848916517333,47.44812172071826]]]},"properties":{"code":"44","nom":"Loire-Atlantique"}},{"type":"Feature","geometry":{"type":"Polygon","coordinates":[[[-1.2458823462890538,47.776717547680406],[-1.2382517343256678,47.80999146297073],[-1.1986209884138974,47.795087631101424],[-1.1931389674383266,47.78697417474339],[-1.152946550291737,47.778006298929476],[-1.1226318940891669,47.78417913959446],[-1.0676842898971974,47.77297059421489],[-1.0204536348384041,47.77298948127482],[-0.9784592276088574,47.76203334334952],[-0.955206706607692,47.76711117947228],[-0.9602944572916631,47.7963079545433],[-0.9251020877476097,47.78771562691841],[-0.8812984869415317,47.763548188692084],[-0.8392941203736607,47.75227330317501],[-0.8399853237495013,47.768146096038514],[-0.816067662956568,47.77122618643005],[-0.7838699174942475,47.75058272701156],[-0.7593093892972002,47.75375329055893],[-0.7417076584328766,47.73810748626689],[-0.7103297199047672,47.74460337209696],[-0.6714156583122058,47.741118751584196],[-0.6537866615388507,47.73338137800601],[-0.6108182423666896,47.73568882741341],[-0.5847783552138252,47.7583563948255],[-0.5328644845775566,47.750826614212684],[-0.5096576702100792,47.786039414506206],[-0.46447480825707566,47.76859230202414],[-0.4545880132966191,47.75647912746232],[-0.42831835229803605,47.76761186364019],[-0.38561432621561664,47.769116081601474],[-0.3817032700427246,47.76056283993387],[-0.3749413527409204,47.739263349746885],[-0.3340636977656885,47.72116613990195],[-0.2867043357584838,47.7193267262097],[-0.23897070389904987,47.704236533845965],[-0.20237319489976208,47.7252424835264],[-0.1823177464697087,47.712899554202],[-0.20031003076883538,47.69468965521296],[-0.2201912638722686,47.68962152946947],[-0.19505682505367974,47.66137704033336],[-0.19315724780649848,47.6479165803738],[-0.15714474625449978,47.64556263174295],[-0.13610057418750457,47.634067825440376],[-0.1075909106103418,47.65528707795732],[-0.07177191841107244,47.658369330035505],[-0.05468293127308542,47.64842261886652],[-0.004507638464452976,47.64768842379034],[0.01704033105751261,47.62110138156107],[0.05165930848592442,47.606515201700375],[0.11568518986526223,47.60572820554534],[0.13984161379263732,47.59111878052602],[0.18492077212499186,47.599519723895675],[0.1857971097487886,47.61573515835152],[0.2300017263531844,47.60839829191704],[0.23453424561335756,47.577982037960055],[0.2150171714816557,47.57064544903573],[0.20150359657525238,47.544318760659884],[0.22484312443395177,47.52727704290141],[0.22010925240137172,47.50195329711621],[0.20921732522172254,47.49365838444261],[0.1812364735767597,47.4526491231434],[0.18528045906678275,47.42473344937359],[0.1676400513828326,47.405415942568375],[0.16799336737564852,47.3869314962575],[0.18295674766364445,47.38033212018486],[0.14939629089256964,47.36226337889678],[0.14729836062565832,47.34537579230401],[0.11746224213975613,47.33234274537884],[0.0785963884113725,47.28394130124859],[0.06792548837999822,47.2473308040697],[0.07249546123856535,47.22050992119078],[0.0532775371077964,47.19718486964462],[0.06659419807362671,47.18979325990068],[0.05382761471070587,47.16373008265526],[0.03664297673522525,47.160354293664795],[0.01901485826766373,47.17575785031973],[-0.01073662557135027,47.15750952036683],[-0.035959245982801084,47.12509157253751],[-0.04416541443323743,47.093242584398084],[-0.08590400471278307,47.1010103974686],[-0.09805549141019346,47.0913509263054],[-0.10212095637964737,47.064797190818005],[-0.12838002979815127,47.05442990559355],[-0.1476585466148043,47.069854366674875],[-0.178486598699701,47.0697670558895],[-0.1521214820209298,47.10085428544302],[-0.1848398275184138,47.10833699690516],[-0.20250740252740007,47.09583787535414],[-0.2415379484520476,47.10572466544675],[-0.2879290635736671,47.10144071067538],[-0.3414640153397548,47.08733467869207],[-0.3579271504355597,47.09365187822681],[-0.3834553981375389,47.08769862856716],[-0.4007795061579299,47.07077103460959],[-0.42854910796633194,47.07271663479802],[-0.4642554478540593,47.06757786350008],[-0.46269733093798004,47.08192636562548],[-0.4953402437613724,47.082385217708435],[-0.5595318719263807,47.06188673077478],[-0.5555783931772565,47.04353316953107],[-0.5654683969778376,47.01942614381194],[-0.61568293448452,46.99293402227639],[-0.6438716820428597,46.99351589442817],[-0.6758343487736584,47.00172199082605],[-0.7156396951065868,46.985502313803366],[-0.743365629187983,47.00070367813692],[-0.7619520119905745,46.992139886795954],[-0.7875770887198819,47.00513718237798],[-0.8559224678754487,46.979084161484536],[-0.8919599503022404,46.975817849607864],[-0.9027847223499762,46.99384133071281],[-0.9334603151811864,47.008908043397554],[-0.9670342291507741,47.00506278044761],[-1.0003954614147021,47.02080439583092],[-1.0158832983469237,47.00413844081306],[-1.0741287584409651,47.008280037449445],[-1.1444802777855911,47.02539165807213],[-1.1485704887534398,47.029545162586565],[-1.1170476687025708,47.04013159004134],[-1.1155386203739606,47.06269707451897],[-1.145027574182689,47.06837675006014],[-1.170292292370527,47.093053598552416],[-1.2423703743532273,47.10123014862037],[-1.2258419448390925,47.11944408223294],[-1.2374293726181724,47.13493300477958],[-1.207726991440738,47.1438706405948],[-1.175868309084218,47.16311976069785],[-1.1634008936162523,47.18546752937314],[-1.1784570598013726,47.193390310739396],[-1.1880521879881976,47.219792216059965],[-1.1809669432498426,47.24081046650355],[-1.1980384206236745,47.252940714686886],[-1.2283649350807286,47.239712044540795],[-1.251834385400758,47.248391505350874],[-1.279481478733716,47.274997858626456],[-1.2798655849130829,47.29443954491049],[-1.3017706698751919,47.30303238335918],[-1.3443707665147786,47.300912351608176],[-1.3358228427021601,47.3189666448679],[-1.2998771573086019,47.33762366530587],[-1.2612216058119492,47.34085259435289],[-1.2286336711215902,47.34992378396915],[-1.182960128465649,47.35431013426607],[-1.167609698077546,47.365887235139574],[-1.1082260597696614,47.36577684975045],[-1.0787286518898893,47.370791947022845],[-1.0178737847602033,47.36506226317233],[-0.9748672757080542,47.371382608948814],[-0.9508302510459343,47.38350557596203],[-0.9500724202369605,47.40418985727392],[-0.9610616341565943,47.418146960038484],[-0.9542208546281663,47.4539097574189],[-0.9672169416067916,47.468248780242014],[-0.9674825559179046,47.492800296900974],[-1.0086170505041334,47.489110660531026],[-1.0444575006084293,47.50550106908369],[-1.0397778230870207,47.54883710607215],[-1.0525094143946503,47.56363638662836],[-1.0068639898836467,47.58905339488284],[-1.026009375226936,47.599308629561634],[-1.0564895204285647,47.601479248609785],[-1.1006492140245874,47.62068366379477],[-1.137956817334609,47.619736138890346],[-1.1579089209094204,47.63660321755249],[-1.1608077767122782,47.65632049258235],[-1.1824294262619501,47.6680046714435],[-1.1749295691501485,47.694565013829596],[-1.1894960789668845,47.69916325132362],[-1.1951181057962028,47.72154902070605],[-1.2154187219671249,47.718817804901974],[-1.2545772523262662,47.733641751506994],[-1.2355437776358398,47.757046555422306],[-1.2458823462890538,47.776717547680406]]]},"properties":{"code":"49","nom":"Maine-et-Loire"}},{"type":"Feature","geometry":{"type":"Polygon","coordinates":[[[-1.1196225402660513,49.3555679898469],[-1.1134631010458858,49.32794637083092],[-1.1395424010513058,49.30987085975071],[-1.1400966460602808,49.2973935275135],[-1.1215034590044193,49.28156614073767],[-1.124678305514618,49.26791880332945],[-1.0787006256545217,49.23459214406213],[-1.03400192072734,49.218462649963996],[-0.9754585570109295,49.19216218144188],[-0.9205699599745509,49.221065178841805],[-0.895819782126535,49.19807825865292],[-0.9373335821349595,49.16152234602555],[-0.9314412531318438,49.14557476084313],[-0.8865942987279166,49.12943404142505],[-0.8784554052403395,49.117103346563994],[-0.8799553096857228,49.088797685340666],[-0.8703864178242734,49.07831283220894],[-0.8845207940960534,49.03871404252527],[-0.8623508752010071,49.034658294620314],[-0.9061381953887807,49.006106279376766],[-0.9136451137312932,48.99096142683413],[-0.9427299538328557,48.967706984870034],[-0.9557321879384142,48.966234060803075],[-1.0226214673729113,48.927090137671044],[-1.0137402112544927,48.91595272397592],[-1.049194217272288,48.89402994339517],[-1.0711805139009567,48.87028515761762],[-1.099957594999108,48.86805030812276],[-1.1553820376155783,48.83646333089034],[-1.1537697728059082,48.822236045223256],[-1.1038400489666345,48.814802746543315],[-1.0894728333388959,48.781514884249376],[-1.0587344201065705,48.7733510406527],[-1.0374406727580494,48.78252947303227],[-1.0126842102843516,48.77178311290127],[-0.9510500649738302,48.78923788485761],[-0.9194507448733115,48.76990119354358],[-0.870843068323719,48.755747083763815],[-0.8409353560137922,48.75222016383323],[-0.8492246178903684,48.73075569433634],[-0.817893287414865,48.73117743116182],[-0.7917739207703051,48.70515869262072],[-0.7354985764702292,48.68396472383358],[-0.7733632741625079,48.65747680031274],[-0.7524222705829918,48.62213618876707],[-0.7517442676401291,48.60131936977811],[-0.768359672906354,48.59032984724143],[-0.7741715461672727,48.56267832832823],[-0.8057094829569462,48.54987498304548],[-0.847670683669462,48.52112645892402],[-0.8603629154348681,48.50145849652254],[-0.895759002734999,48.49483509679017],[-0.9223589824244613,48.512387467627654],[-0.9563792193607108,48.5166180795957],[-0.9722539090536432,48.49459678797466],[-1.003998750116345,48.489170559999316],[-1.0605549892053183,48.51534444794686],[-1.0701645143702043,48.50849381419032],[-1.1305430914657242,48.52170438546665],[-1.1470794109416749,48.517497772579],[-1.1709940931325373,48.53107346572728],[-1.1883677623098592,48.52868744833374],[-1.206555726308375,48.54220594454138],[-1.2722484935647256,48.533924823055],[-1.2792064911793741,48.50916990134831],[-1.3286586444430455,48.49624141596003],[-1.3446860862323986,48.47306856926301],[-1.3825547062366061,48.4568090552251],[-1.4291375679083818,48.46255700303843],[-1.4492619036481307,48.48610480553381],[-1.4899474351423645,48.4893748476061],[-1.4956341385339116,48.508901592854826],[-1.5195667662578034,48.54001612578908],[-1.5332845735947223,48.548008242217605],[-1.5189153941473403,48.56659421958314],[-1.5429924815935763,48.580444133540496],[-1.5395886706131567,48.59990995187043],[-1.571087121326364,48.62644574305228],[-1.5435435350637288,48.63121279257955],[-1.5156463864153509,48.618246538328954],[-1.4771911456334617,48.618735940477464],[-1.443640368193959,48.62752557033798],[-1.3931950000571642,48.650524383670096],[-1.4858341115383116,48.68638581019091],[-1.5081675203931897,48.69117348999072],[-1.5319288351465319,48.73102057677593],[-1.5601811084952157,48.73546601099355],[-1.5744067767391592,48.75184944838184],[-1.5689116621961623,48.80265414493922],[-1.5744419562050678,48.821684938652076],[-1.60492034674064,48.83789166867906],[-1.5871695543001123,48.84645691414395],[-1.5763778734243568,48.86622956887365],[-1.5696724678452931,48.899023227002154],[-1.5515508912728522,48.90833449236361],[-1.5434217971126396,48.93102731412556],[-1.5621121920567587,48.94101750482779],[-1.5607059456223331,49.00148291031971],[-1.5937932678762967,49.022503267429315],[-1.6094115242692357,49.07927811770436],[-1.606935957044734,49.11003133842661],[-1.5947491074806148,49.131932809532245],[-1.6073172609984514,49.19664548258766],[-1.5892834706047838,49.23342782862976],[-1.61699549946473,49.23161226126529],[-1.6316904105955683,49.21422567935813],[-1.6541578497297265,49.241447844599655],[-1.6650285987196094,49.265558278699984],[-1.711168264458309,49.32509928438261],[-1.7242753116935,49.32710827112396],[-1.7647207703926648,49.36355636410871],[-1.8070415201028562,49.371883988182944],[-1.8236585668079848,49.4014702879999],[-1.8267724913131993,49.452917249373044],[-1.844605855792456,49.47096122199953],[-1.8525981237513987,49.51038685631441],[-1.8819329337834734,49.519310940029676],[-1.8856955118557936,49.54039147246037],[-1.8579284299662393,49.5515291506756],[-1.8410273136069895,49.57173433702396],[-1.8451411614330706,49.61908992529084],[-1.8603000418191267,49.65019279204103],[-1.8956952778084324,49.664931836942685],[-1.9461788272965446,49.67434830154208],[-1.936439146470204,49.69375892397446],[-1.9472764301188112,49.704932281313916],[-1.942245186733018,49.72555529334811],[-1.916516630754937,49.724878374537525],[-1.882912866788183,49.705706386310766],[-1.8587301287976281,49.715623305593],[-1.839532798595857,49.71155454173644],[-1.8228561882429963,49.69031481833081],[-1.7745875090438277,49.68086868404481],[-1.717807811993846,49.67984522346912],[-1.6867515873282075,49.67307140423291],[-1.6724172017020642,49.65765473955586],[-1.63285141798923,49.66064611404181],[-1.6246789365290826,49.6464653967003],[-1.520239237616472,49.65741709322276],[-1.4858029063728724,49.669313639920425],[-1.4710805783093919,49.69667602847381],[-1.4557412827864928,49.691326221246335],[-1.4211576721789985,49.70370298113619],[-1.3685551471066846,49.706629617440186],[-1.2998499192449107,49.6935189965057],[-1.2679290471720517,49.69532738213563],[-1.271008796143279,49.6797055830237],[-1.2391814229357874,49.65240173891874],[-1.2290598170197164,49.60871341882292],[-1.254286601197548,49.61265560522737],[-1.2662663845442874,49.592850277700535],[-1.2962320370638967,49.58317124235064],[-1.3091674328357494,49.552607084023585],[-1.3063594927131816,49.538927340535665],[-1.2527076587085064,49.480600121491854],[-1.1925632637620527,49.432177811410874],[-1.1680020729875382,49.408031628446786],[-1.1617336960367475,49.391748947534765],[-1.1785816005847864,49.37845801413797],[-1.1639520107160866,49.36665848650392],[-1.1196225402660513,49.3555679898469]]]},"properties":{"code":"50","nom":"Manche"}},{"type":"Feature","geometry":{"type":"Polygon","coordinates":[[[-1.0701645143702043,48.50849381419032],[-1.0605549892053183,48.51534444794686],[-1.003998750116345,48.489170559999316],[-0.9722539090536432,48.49459678797466],[-0.9563792193607108,48.5166180795957],[-0.9223589824244613,48.512387467627654],[-0.895759002734999,48.49483509679017],[-0.8603629154348681,48.50145849652254],[-0.7975558085305263,48.465278693659805],[-0.7778740724524535,48.46541168200867],[-0.7796468261489741,48.44602717779943],[-0.7572811397545338,48.436551469912764],[-0.7151034623418729,48.448949122074],[-0.7358573623603453,48.46112222178988],[-0.730343478460553,48.472706578375146],[-0.7020679300858332,48.467206812159105],[-0.6662397250359153,48.48588955148741],[-0.6510738694884249,48.44394876336686],[-0.5986229162657322,48.47101955265918],[-0.5502899127948604,48.47423143238625],[-0.5304357344769987,48.495166069981224],[-0.5050654278707298,48.50579601256293],[-0.4781981375781819,48.501570405632215],[-0.44380935670202487,48.51374721178168],[-0.3676233888648988,48.492944315128234],[-0.33820693066737895,48.50050101655408],[-0.3202385045732452,48.522920009526636],[-0.2715497531161014,48.50745217404008],[-0.2629746987558156,48.52359724467027],[-0.24146030977322894,48.53711490462154],[-0.26180278773892185,48.54789343136948],[-0.23435383691646136,48.56233718214002],[-0.20693829348513745,48.562944759163955],[-0.16938322355767327,48.53697934057344],[-0.14460396356167668,48.52775250488166],[-0.1663420949957147,48.51558833305454],[-0.14362687075469976,48.45472711281225],[-0.10641204070316028,48.44752336948581],[-0.051896256193192464,48.4532597698412],[-0.05735713318959158,48.42850475869075],[-0.05453120471342586,48.382003457815514],[-0.07781568991642306,48.369011884149366],[-0.11216445619965741,48.37424593844257],[-0.13797809431803487,48.36135559567944],[-0.1322639799404977,48.34367891800192],[-0.15624187430084163,48.33878308965111],[-0.15462051452709383,48.31399248085133],[-0.13808698398432823,48.2934339795153],[-0.162366087633251,48.26001034242559],[-0.16095933457080433,48.23880560928454],[-0.14518119273289676,48.224233621433555],[-0.14683706738655639,48.205008919837425],[-0.1989536608764294,48.17827619579444],[-0.24992127138834272,48.157106805241526],[-0.25380835722539496,48.13652925202679],[-0.2164164207043083,48.11373479657783],[-0.23852128063613662,48.08512943952702],[-0.22496575471956115,48.0740005169816],[-0.2309424436035576,48.058985357486335],[-0.27144577462211034,48.06524304546605],[-0.31721069812097374,48.04509335726533],[-0.3399323890629896,48.01160216696548],[-0.3160042679648186,48.00526279935535],[-0.2826331784456301,47.958191807392794],[-0.2953214951501512,47.944001512102375],[-0.33832856883634976,47.93101420361583],[-0.37509534291502034,47.93272853592671],[-0.39622906190687696,47.92596685050878],[-0.40710509590818,47.91084268048501],[-0.40516479150867374,47.89292797578798],[-0.37698156137550093,47.887202712966676],[-0.3743813069594822,47.85830770196427],[-0.40938712543111205,47.858367062871636],[-0.4478589178811479,47.832216379452724],[-0.43408017720781095,47.80905444470248],[-0.3882005825686289,47.80531865639091],[-0.3754332123417834,47.76723904317632],[-0.3817032700427246,47.76056283993387],[-0.38561432621561664,47.769116081601474],[-0.42831835229803605,47.76761186364019],[-0.4545880132966191,47.75647912746232],[-0.46447480825707566,47.76859230202414],[-0.5096576702100792,47.786039414506206],[-0.5328644845775566,47.750826614212684],[-0.5847783552138252,47.7583563948255],[-0.6108182423666896,47.73568882741341],[-0.6537866615388507,47.73338137800601],[-0.6714156583122058,47.741118751584196],[-0.7103297199047672,47.74460337209696],[-0.7417076584328766,47.73810748626689],[-0.7593093892972002,47.75375329055893],[-0.7838699174942475,47.75058272701156],[-0.816067662956568,47.77122618643005],[-0.8399853237495013,47.768146096038514],[-0.8392941203736607,47.75227330317501],[-0.8812984869415317,47.763548188692084],[-0.9251020877476097,47.78771562691841],[-0.9602944572916631,47.7963079545433],[-0.955206706607692,47.76711117947228],[-0.9784592276088574,47.76203334334952],[-1.0204536348384041,47.77298948127482],[-1.0676842898971974,47.77297059421489],[-1.1226318940891669,47.78417913959446],[-1.152946550291737,47.778006298929476],[-1.1931389674383266,47.78697417474339],[-1.1986209884138974,47.795087631101424],[-1.2382517343256678,47.80999146297073],[-1.2160077396105768,47.83115457607098],[-1.2139598200974668,47.84431487401968],[-1.1892286738461781,47.8675257247478],[-1.1966267612194066,47.88926967278471],[-1.176229425978116,47.89739680946678],[-1.1595139860083212,47.939220868111676],[-1.1539806565642339,47.96582146885006],[-1.1260769059410864,47.97331126695682],[-1.1026711686637318,47.98906278289821],[-1.0709701077191276,47.98180281363006],[-1.0212610284765602,47.99494016247969],[-1.018202579829028,48.012309356573546],[-1.0346655165784813,48.03361464779431],[-1.023283345569893,48.06891120315209],[-1.04960608939875,48.08980493060165],[-1.0602909002161003,48.150112461248],[-1.0796054903163383,48.18347699576321],[-1.0736642370047438,48.20075616092018],[-1.1015118599620337,48.26179752391566],[-1.0820973324543777,48.298390519589205],[-1.0450195299623026,48.327727830000974],[-1.0646345421184056,48.36828025341763],[-1.0539346752839132,48.383988802654805],[-1.0771281225801501,48.41169597169672],[-1.0830222073820854,48.43355484623164],[-1.06581502082362,48.4511898364817],[-1.0757201292558587,48.499394433638884],[-1.0701645143702043,48.50849381419032]]]},"properties":{"code":"53","nom":"Mayenne"}},{"type":"Feature","geometry":{"type":"MultiPolygon","coordinates":[[[[-3.4217944600697368,47.61999952861919],[-3.4406738530114698,47.62744679435384],[-3.461909001466569,47.62034681911687],[-3.507636790362259,47.64059795161403],[-3.49694135188665,47.65381152152095],[-3.4294813948989478,47.64229749186373],[-3.4217944600697368,47.61999952861919]]],[[[-3.1940520278217033,47.365886589187845],[-3.1558608908337975,47.36108442084754],[-3.1396408742776,47.32984432149179],[-3.093118374110732,47.31513470942471],[-3.0582391297313816,47.31171761648738],[-3.075226717105766,47.28765950170699],[-3.0952043253326664,47.28316064947407],[-3.1601157231427477,47.29225940386197],[-3.1676397818540765,47.30159326598069],[-3.1961744739708213,47.293731303533484],[-3.2210154756876954,47.29481986735795],[-3.249090302439361,47.31611992695789],[-3.23967936511255,47.32311099309081],[-3.260498308082758,47.35272839079793],[-3.260984257345955,47.37200040038536],[-3.2196122622040786,47.37940035282299],[-3.1940520278217033,47.365886589187845]]],[[[-3.523004293499609,47.84914685714251],[-3.5117214211485104,47.83199375246112],[-3.488375735328993,47.82369125414433],[-3.4584776087007003,47.83672369691625],[-3.449172314379866,47.861897916786695],[-3.4040114963344528,47.86615562756545],[-3.406618446285296,47.917155590887866],[-3.3870295747062062,47.925240278144464],[-3.4015047820862296,47.94296944095624],[-3.3922406780637284,47.95650358632056],[-3.4128264844188565,47.9741964735994],[-3.4627039996577236,47.948470485246176],[-3.4813997640454386,47.95187230610157],[-3.497303664400367,47.97663709189755],[-3.5156118733539357,47.97536899639446],[-3.5552758457516087,47.993098470462],[-3.5813379803683882,47.98707045002737],[-3.640231533075075,47.98524271311537],[-3.662606521516704,48.02008121333488],[-3.675286774640338,48.059296687637904],[-3.69816707482359,48.06231160032721],[-3.7032714693453843,48.08734402006448],[-3.725890623875097,48.09496610205945],[-3.73401071349441,48.11285300326305],[-3.717299501973206,48.12152104588753],[-3.7155113160954,48.14222278424499],[-3.69467505545132,48.15091429371495],[-3.6518557265570566,48.156583426737576],[-3.6283881260752544,48.1687248221492],[-3.564838973733329,48.18574694305737],[-3.5226593775760193,48.17866367131642],[-3.479531508235686,48.18604551951424],[-3.421483221253355,48.171908070532616],[-3.4365241396101114,48.15548652160798],[-3.412343177084257,48.14703755651635],[-3.375090054291556,48.16304435591315],[-3.344702681056185,48.16988498065198],[-3.3161758750965893,48.1545827022414],[-3.299596147833247,48.15481185209133],[-3.272244339627829,48.14001476484374],[-3.252339548077637,48.14912522090896],[-3.2153961448986896,48.148219713915],[-3.197060119674698,48.16274313777778],[-3.1552540693335707,48.15849094352833],[-3.13949669814907,48.16369070727257],[-3.1303749671924512,48.19836233856125],[-3.0406075793447904,48.20331232171781],[-3.0139527993300925,48.18705096969819],[-3.011766723688266,48.172146259772674],[-2.987721150165838,48.15963608311985],[-2.939688841727517,48.17157869268649],[-2.902695082695001,48.162745095709155],[-2.850803362250115,48.14117007726401],[-2.809828548228586,48.146257335704156],[-2.781951132488677,48.12057973083874],[-2.7579911570321793,48.11080992160437],[-2.702496597157526,48.11801355272737],[-2.6683740921478765,48.1327428357553],[-2.6531526316222527,48.118092931008704],[-2.6561723624005746,48.08428809143894],[-2.6733315926174024,48.06327971694363],[-2.6708865594355458,48.0502796096436],[-2.628212989216798,48.03379948794944],[-2.5808040837522404,48.06711154950066],[-2.5484346321898643,48.07671678652329],[-2.5493015028073205,48.09906568300373],[-2.516390296656647,48.12795387925489],[-2.5336627078715,48.156856696914886],[-2.488996903351025,48.15527484508064],[-2.457460857137994,48.163558679343076],[-2.4492428069717214,48.17301268121088],[-2.4070872062503708,48.167846923022466],[-2.399892263143436,48.154593831126384],[-2.375704866327887,48.141440597184854],[-2.371983930719517,48.12276022571531],[-2.321067331808052,48.123313308346624],[-2.307724031505891,48.136767145944454],[-2.287278430400511,48.133745563458476],[-2.255541810894401,48.10943651832076],[-2.255362117704863,48.065686457906594],[-2.2332446439270166,48.07562787634504],[-2.1873980178837424,48.08098581530162],[-2.1703797438923407,48.06358155989515],[-2.193720023024239,48.05137966801874],[-2.2418711140864542,48.05284164383506],[-2.2795950136703538,48.02636073132026],[-2.282925404888046,47.99091881499263],[-2.2328964298568574,47.998867256915695],[-2.2048365524509523,47.99406221955531],[-2.174134646718617,47.97976235737829],[-2.143950368919052,47.983469165776214],[-2.1112032705184025,47.959278246467555],[-2.098673563613805,47.93553710123405],[-2.079088544973962,47.91952249839454],[-2.0847410993122524,47.90544356892739],[-2.104913226347623,47.90237571011746],[-2.1162985684590643,47.88095628988424],[-2.0963111903663836,47.862554271425815],[-2.0912481690997526,47.8434473982296],[-2.05159236139944,47.858773023325405],[-2.0516011501156974,47.84056453938214],[-2.035760594626103,47.83230046155979],[-2.0495260703928677,47.816917397929046],[-2.07046358794415,47.81140390317735],[-2.072263910083875,47.79043840708027],[-2.1281864076334727,47.76137577244934],[-2.0847208937394774,47.76271449098266],[-2.05870429699438,47.73825600134232],[-2.108708446187951,47.736577355949336],[-2.131472084919135,47.72224026215694],[-2.1193410051181774,47.71063202277528],[-2.1226631940444274,47.68266972251208],[-2.104362517130758,47.67679662818726],[-2.1143465125517733,47.64948078140733],[-2.097035597340287,47.63135984401428],[-2.084994306680996,47.62123305096733],[-2.0869285812433267,47.60277534815358],[-2.10372254987444,47.58943141752024],[-2.096505468974894,47.57236562280809],[-2.0985539306805943,47.53395835736954],[-2.1560219978896007,47.52202803044017],[-2.1541846873077226,47.496364126798106],[-2.1832952625867295,47.49169698467854],[-2.1908096601747804,47.51205628181908],[-2.244282758246302,47.49360064884759],[-2.2613604986657707,47.51360628741794],[-2.2991284429653516,47.50047998605304],[-2.3131355987939677,47.48590211028132],[-2.31286829291468,47.46446874947645],[-2.354869937092447,47.454890712840786],[-2.370968184053226,47.46338717496278],[-2.3999436811786463,47.45598156061156],[-2.4230264761460525,47.477112579344045],[-2.453433891770773,47.46207445240776],[-2.45848916517333,47.44812172071826],[-2.4794720164550967,47.44310980823914],[-2.498735357450224,47.45724235463569],[-2.489565024970293,47.47431520811904],[-2.5015179310929967,47.489586634131676],[-2.4412239148217303,47.49623958282475],[-2.466145152823908,47.51170094995204],[-2.5177254508541034,47.52638405379225],[-2.543943614544709,47.52304464159969],[-2.5528199043026465,47.51257795028038],[-2.6035175490392004,47.51629291634741],[-2.603686239678167,47.53097620577883],[-2.652315813187561,47.53948128320896],[-2.6518523877085074,47.52918871697427],[-2.681267629896647,47.49582645624765],[-2.7155074792326994,47.50555679146207],[-2.783910628164775,47.49416982507097],[-2.7953631847353706,47.48606302718516],[-2.8494662625405485,47.498716770371836],[-2.8475718355405935,47.512071687742385],[-2.8752313484549616,47.534363529261185],[-2.9132300200024543,47.543009316861514],[-2.9093071370148396,47.55995295111369],[-2.882650360709671,47.56273792316479],[-2.8621207995589244,47.54108127622838],[-2.8188916250932614,47.547311960718446],[-2.8053190952421017,47.55465057729475],[-2.762369364633524,47.53644978740993],[-2.7342064067723255,47.55206430843042],[-2.7154316604959736,47.57654253087959],[-2.714432950008992,47.59298967346035],[-2.757592183654573,47.61287735101191],[-2.7545302536260285,47.635943017790716],[-2.7951916631184384,47.619515983940175],[-2.8312692184373036,47.613980283771895],[-2.851150732135118,47.619022264840936],[-2.8883074806182694,47.60372031432131],[-2.8941178097199294,47.58191685891699],[-2.9370470028114317,47.59651736500671],[-2.950659153900295,47.579303860754656],[-3.0046859134608477,47.56646553748797],[-3.026468461710979,47.58394599905037],[-3.094879923920414,47.564686311749014],[-3.1232589863704034,47.5695081568697],[-3.1332300779049587,47.532435621621886],[-3.1169009752940933,47.4961604922533],[-3.09449650710579,47.482412765246636],[-3.129391708495516,47.4738244656134],[-3.1517748821158404,47.50387332474793],[-3.152063868227419,47.52789301771813],[-3.1345805586210473,47.54882366707632],[-3.139749279889078,47.57960047643262],[-3.1583771335933584,47.6069849085308],[-3.1937321982478797,47.62194072617485],[-3.2097530809913435,47.640690040350975],[-3.2081288735823428,47.66342980157541],[-3.190504238501219,47.68254092926842],[-3.166595512762787,47.6804302446036],[-3.128059188762987,47.70555367694903],[-3.1259616002794033,47.72345749155855],[-3.159418178564092,47.737388379799775],[-3.1763421131463927,47.734689167234386],[-3.1737051439382005,47.701956980943464],[-3.217549801386117,47.66730699988139],[-3.214971438983497,47.64522440607226],[-3.270895013000413,47.6788711919624],[-3.28786392948088,47.700955682089656],[-3.3409140108798394,47.70870473596058],[-3.34887310198566,47.728643297493896],[-3.387107819813834,47.70188799129091],[-3.4304371204407182,47.70321133479036],[-3.452760568692728,47.69534163728435],[-3.4983535994006227,47.72943310383713],[-3.520959375326517,47.75766895361749],[-3.5299269866083183,47.78246448849144],[-3.5173821429083914,47.80503760359084],[-3.5359178691698356,47.81643884429237],[-3.5382904863091595,47.836020899790604],[-3.523004293499609,47.84914685714251]]]]},"properties":{"code":"56","nom":"Morbihan"}},{"type":"Feature","geometry":{"type":"Polygon","coordinates":[[[-0.8409353560137922,48.75222016383323],[-0.8192734301255277,48.7541311066678],[-0.7806266616236817,48.78665142650693],[-0.7125565216024937,48.80069002566648],[-0.6821715230909893,48.821834119269546],[-0.7054998116130325,48.83677879901897],[-0.6935979640277244,48.8472307255334],[-0.6264394642029217,48.8268065097143],[-0.5445223814299559,48.8478900838751],[-0.4940452996821073,48.84857463029627],[-0.46875379913660753,48.86921416486376],[-0.431252227536603,48.87431946705079],[-0.4089756657265101,48.87089665763008],[-0.38621249067401003,48.8452588814631],[-0.3462445710154039,48.821999140746314],[-0.3267045002943942,48.840277412458356],[-0.3285204584539417,48.857599313600346],[-0.29452074618238994,48.85168192113505],[-0.26217897261037365,48.85359465583731],[-0.17671993891467938,48.83423079521249],[-0.1463430882060753,48.83444909949476],[-0.0850638956816069,48.84465033807136],[-0.0590064530019254,48.853491798472966],[-0.030666077085217337,48.8738778222776],[0.008758124525063051,48.8910599383045],[0.05639799250068904,48.902464038657314],[0.07094503667266873,48.932121250285164],[0.09488679748726127,48.93579979818696],[0.12760760912750246,48.95221907078784],[0.1564748700538276,48.924787583562484],[0.18746286897648523,48.940627353263515],[0.24227175031800538,48.94434881189317],[0.24466232022740259,48.95878245595905],[0.27250168047082235,48.964655839870495],[0.28264019709882576,48.94899613116388],[0.3105016483200191,48.9525668734449],[0.3332314772821841,48.942781544583966],[0.3581085399804696,48.95050361041376],[0.37731004626458825,48.972554866896424],[0.40609491524831554,48.96346413266829],[0.412814532889088,48.950626367694355],[0.3907837746929919,48.9271332888758],[0.38618934896504153,48.91041450585282],[0.42156714219561403,48.89864779537123],[0.4200659412941513,48.88818710783798],[0.45358528537402837,48.88019513771439],[0.4761125006440536,48.88686266076319],[0.5021397353658976,48.878150204150515],[0.5525030083730612,48.87553783157171],[0.5780409793892106,48.89364694598877],[0.6109659813863897,48.853218358881485],[0.6078685100835315,48.832489316673694],[0.6687110370739024,48.80802140346215],[0.6889623683560373,48.79460354988005],[0.7319447587721393,48.78545800743581],[0.7584300486684715,48.767971967774606],[0.7508055582409985,48.75949683157833],[0.774959043114129,48.73752726458568],[0.7433928921084365,48.71690523836887],[0.7660502318369231,48.69679825478523],[0.7640759546715993,48.67527365639454],[0.7822053215915061,48.66652415160697],[0.8148191028635925,48.67016796018795],[0.8268154990669214,48.63060614219509],[0.8177592533729132,48.616321964340834],[0.8465847869380818,48.60477987546661],[0.8495690718886973,48.584317085863454],[0.8676826582446395,48.57348477486485],[0.8912620563004201,48.57217735609871],[0.9387576535104647,48.55055845317247],[0.9226089134985012,48.5377152127879],[0.9667159729358187,48.52408891339411],[0.9539997024327551,48.50383926047164],[0.956288496333069,48.48228110680156],[0.9357072927920254,48.475553713886015],[0.9584142860496184,48.442595257597894],[0.9439900556805834,48.41543779690512],[0.9486303005350746,48.40254075139077],[0.9090291135378351,48.37025942165492],[0.8837069426865347,48.35671469741493],[0.8187477629538905,48.3492990187552],[0.7854319060188925,48.34042724028456],[0.7688672771787132,48.32194393371593],[0.7958184564245077,48.28648186022423],[0.7875964742272762,48.26131463776064],[0.8302416950484665,48.21430027818372],[0.797655838494225,48.19445221754921],[0.764084678712686,48.181597068873735],[0.7236370295054257,48.198143278755104],[0.6954713879467597,48.236330986094266],[0.6754723126802372,48.254743451079044],[0.6531564634145168,48.26370008686643],[0.6236114391567086,48.24531365157172],[0.5791940330516644,48.24436715365327],[0.5359730618565085,48.24984731423508],[0.5303066115723511,48.265500468342935],[0.49456203378441577,48.28681219277962],[0.48757228180388706,48.307800269630285],[0.4313327796769827,48.30663773892564],[0.4062188750511576,48.31462381799055],[0.3826045470591668,48.33382739375671],[0.3831416441494548,48.35506581259146],[0.3717304119271855,48.41045271670545],[0.38155707814654405,48.42516246095979],[0.35577910790038714,48.4582196404425],[0.30023976976312095,48.480570774759265],[0.21796784681891437,48.4738014493765],[0.18981014616858835,48.46189487699406],[0.17216701037378906,48.46478849710128],[0.1513148609685129,48.43722944549019],[0.11624508246972709,48.43555379652284],[0.09917026625350714,48.41035346558878],[0.0686800642491165,48.406668571805646],[0.06252414284954447,48.38302768487248],[0.020988775959532427,48.38019902542899],[0.0033707584170527497,48.39598744941706],[-0.04462899093295152,48.379755379925435],[-0.05453120471342586,48.382003457815514],[-0.05735713318959158,48.42850475869075],[-0.051896256193192464,48.4532597698412],[-0.10641204070316028,48.44752336948581],[-0.14362687075469976,48.45472711281225],[-0.1663420949957147,48.51558833305454],[-0.14460396356167668,48.52775250488166],[-0.16938322355767327,48.53697934057344],[-0.20693829348513745,48.562944759163955],[-0.23435383691646136,48.56233718214002],[-0.26180278773892185,48.54789343136948],[-0.24146030977322894,48.53711490462154],[-0.2629746987558156,48.52359724467027],[-0.2715497531161014,48.50745217404008],[-0.3202385045732452,48.522920009526636],[-0.33820693066737895,48.50050101655408],[-0.3676233888648988,48.492944315128234],[-0.44380935670202487,48.51374721178168],[-0.4781981375781819,48.501570405632215],[-0.5050654278707298,48.50579601256293],[-0.5304357344769987,48.495166069981224],[-0.5502899127948604,48.47423143238625],[-0.5986229162657322,48.47101955265918],[-0.6510738694884249,48.44394876336686],[-0.6662397250359153,48.48588955148741],[-0.7020679300858332,48.467206812159105],[-0.730343478460553,48.472706578375146],[-0.7358573623603453,48.46112222178988],[-0.7151034623418729,48.448949122074],[-0.7572811397545338,48.436551469912764],[-0.7796468261489741,48.44602717779943],[-0.7778740724524535,48.46541168200867],[-0.7975558085305263,48.465278693659805],[-0.8603629154348681,48.50145849652254],[-0.847670683669462,48.52112645892402],[-0.8057094829569462,48.54987498304548],[-0.7741715461672727,48.56267832832823],[-0.768359672906354,48.59032984724143],[-0.7517442676401291,48.60131936977811],[-0.7524222705829918,48.62213618876707],[-0.7733632741625079,48.65747680031274],[-0.7354985764702292,48.68396472383358],[-0.7917739207703051,48.70515869262072],[-0.817893287414865,48.73117743116182],[-0.8492246178903684,48.73075569433634],[-0.8409353560137922,48.75222016383323]]]},"properties":{"code":"61","nom":"Orne"}},{"type":"Feature","geometry":{"type":"MultiPolygon","coordinates":[[[[-2.304793360419174,46.70942393875938],[-2.3355867245025954,46.68810408131238],[-2.365411420853787,46.69514960298605],[-2.3928869274271354,46.71146786590562],[-2.398989314185467,46.72610823947123],[-2.371515973727442,46.732425575951765],[-2.3183814886611573,46.719019084873665],[-2.304793360419174,46.70942393875938]]],[[[-1.1485704887534398,47.029545162586565],[-1.1444802777855911,47.02539165807213],[-1.0741287584409651,47.008280037449445],[-1.0158832983469237,47.00413844081306],[-1.0003954614147021,47.02080439583092],[-0.9670342291507741,47.00506278044761],[-0.9334603151811864,47.008908043397554],[-0.9027847223499762,46.99384133071281],[-0.8919599503022404,46.975817849607864],[-0.8729898783606566,46.94434766819017],[-0.8519389677391533,46.94650472324497],[-0.8291443983745105,46.93336473376701],[-0.8170418725493785,46.903983682599055],[-0.8321833934652019,46.88454160082127],[-0.8152783793677632,46.87936123351067],[-0.7816473761536221,46.842828501140936],[-0.7328576209101574,46.8215002648331],[-0.7088363450612226,46.82106096053443],[-0.7273121698337293,46.76763245445797],[-0.7001491562174191,46.735799391945754],[-0.6688837671234614,46.717234169266845],[-0.6561893352875896,46.700774642460914],[-0.6807382103871169,46.686802029507525],[-0.6375207590786917,46.662275660644845],[-0.6341929952870002,46.63738600695415],[-0.6141139330666167,46.62039039102903],[-0.6270238350693782,46.60565028049541],[-0.6119040829758216,46.5883080542103],[-0.6245653646005823,46.57739763355232],[-0.6067041276726987,46.562332081853285],[-0.6021285989587045,46.533280547788735],[-0.6245399718190973,46.529723883887414],[-0.6451962418895167,46.50856915270028],[-0.6250321267782425,46.49748332134845],[-0.6159660718681671,46.46157045085021],[-0.6187762241263333,46.43885619623182],[-0.6368414296493504,46.43230561509176],[-0.6406445679433723,46.41622924515597],[-0.6208833834377796,46.390455794535654],[-0.6101772466297536,46.41373600220488],[-0.5660555377589854,46.39308485800112],[-0.5378004980121098,46.38646546545568],[-0.5618089129416993,46.35974018410839],[-0.6032466407115049,46.36146637541298],[-0.604945148704239,46.34715238390407],[-0.6366035278644262,46.337591841879316],[-0.6482532698392601,46.317144430298924],[-0.6722725322460164,46.3162191658117],[-0.6973310699310054,46.3250900125706],[-0.7201500047099074,46.31489050090406],[-0.7219129656364313,46.30237450310386],[-0.7504755422947275,46.30425879436195],[-0.8024766924625577,46.325152925140934],[-0.8090890487729437,46.33843674064563],[-0.839878203866059,46.340369117324364],[-0.8509360179567931,46.31718679438478],[-0.8876799965820683,46.32632425572865],[-0.9047974021645193,46.31381080962026],[-0.9348886609093259,46.31285600461673],[-0.9617714534617725,46.323112713720874],[-0.9441603850496662,46.33604884873509],[-0.9318397064952478,46.3658034260157],[-0.9645133582944424,46.3654018117805],[-0.9774473324091834,46.35111139719007],[-1.013807240115001,46.35562475996166],[-1.0525280096214227,46.34254164468142],[-1.0807261526640515,46.32142762319264],[-1.129404177492153,46.31027691915601],[-1.1671810169437413,46.31969405036838],[-1.2021666067108026,46.31599153007532],[-1.1955103805422935,46.30048349541652],[-1.2063765625294878,46.288846571626785],[-1.2073944924206363,46.266571614816904],[-1.281772839130423,46.309968266424384],[-1.3444380346892142,46.341953842181326],[-1.3667425638808843,46.34861328663727],[-1.4009792622186368,46.34050457904003],[-1.4284190944836321,46.34712502912173],[-1.4659415635018052,46.34235901019938],[-1.4877969769705215,46.38139204154906],[-1.5021454225847812,46.39734952406836],[-1.5340123722474628,46.40887626089284],[-1.5490765402226871,46.40548020561594],[-1.6113040094680402,46.41341659286108],[-1.7082937557327667,46.450884792059824],[-1.7558962800631415,46.474872816955255],[-1.777141798763278,46.49275846362317],[-1.8136695999589263,46.49534718792214],[-1.8213149950439371,46.523721393572785],[-1.8560176099926675,46.608577928185206],[-1.8906746733506474,46.634689983740806],[-1.9408440446802884,46.69106965939676],[-1.96540793995167,46.69200185704432],[-1.9826664543508177,46.72031292149719],[-2.0719487980113698,46.782813819976845],[-2.1410311606229655,46.81774558883561],[-2.1550297319780927,46.88965414468634],[-2.122239576466256,46.891263453405536],[-2.103448154684842,46.92098874969161],[-2.0582281140235676,46.950944454989695],[-2.0293326201395745,47.0086320208736],[-1.980414486742876,47.02890649407564],[-1.9688489284381314,47.02767329905578],[-1.9432276192598639,46.99471092059494],[-1.9166202315157645,46.991518959422415],[-1.9174428113267457,46.97508381963422],[-1.872614380314098,46.95312868208426],[-1.8318237164160205,46.953809822447525],[-1.8309821821134158,46.932033724154486],[-1.77556460551789,46.92540682943319],[-1.7513270577094098,46.929611815604666],[-1.7362508076850236,46.91143568904478],[-1.7371139932046213,46.89680599083098],[-1.7202546726947285,46.88456447923729],[-1.6870033984268769,46.89055113474326],[-1.6645131258008816,46.874779205029014],[-1.634820511862539,46.87837868837905],[-1.5485110748777025,46.86007983436468],[-1.5007668577856463,46.88389115282979],[-1.527927453698693,46.92377826735825],[-1.5309030377362816,46.94498074264914],[-1.5543623514658027,46.97816341773942],[-1.542665987015755,47.00327217070728],[-1.5552723334553664,47.01533738692226],[-1.515724271893768,47.027732420842334],[-1.4998449288829532,47.04068947453796],[-1.4759335714372155,47.029463554503664],[-1.469172627780506,47.00198697021648],[-1.4769594857010369,46.98097074445235],[-1.4572082927387657,46.95464665401728],[-1.4715165512848787,46.93291787054446],[-1.4582677297055284,46.92583846037384],[-1.4181594787532137,46.943057239909116],[-1.3729857700949506,46.95218446660972],[-1.3590587331965938,46.98113458794234],[-1.3775094300897999,46.990940454807415],[-1.363022131692666,47.005231806651935],[-1.3786124689367814,47.03085386698655],[-1.3627515861913184,47.04068820066417],[-1.3124114592110108,47.03350963450989],[-1.2946349782361042,47.03948346966515],[-1.2903251112226377,47.07019181205101],[-1.2683044893940385,47.08474885032919],[-1.248272600668004,47.068248451977425],[-1.230646678052403,47.0647662671337],[-1.200679265181828,47.04002068735864],[-1.1485704887534398,47.029545162586565]]],[[[-2.1980740779182004,46.95116764927802],[-2.223157246071586,46.965272827071246],[-2.264380088499401,46.96087838866196],[-2.3010983301708356,46.98904472545455],[-2.292512307340026,47.01255801910092],[-2.276523639405111,47.02888353822751],[-2.250689026745477,47.02730168494982],[-2.21884576130942,47.00847250653137],[-2.2262568575011112,46.976185679026486],[-2.157184376417708,46.950037734214405],[-2.1474391673875983,46.93419680146382],[-2.148498361118927,46.912972973348154],[-2.1679626813926482,46.90846416238237],[-2.175646599875998,46.92930475655864],[-2.1980740779182004,46.95116764927802]]]]},"properties":{"code":"85","nom":"Vend\u00e9e"}}]}